{
  "type": "FeatureCollection",
  "features": [
    {
      "type": "Feature",
      "properties": {
        "norad_id": 54741,
        "name": "GALAXY 35 (G-35)",
        "group": "intelsat",
        "lat": -0.026230644771742702,
        "lon": -52.12853518502222,
        "alt_km": 35778.49776924747,
        "timestamp": "2025-12-21T20:41:07.653300+00:00",
        "meta_object_name": "GALAXY 35 (G-35)",
        "meta_object_id": "2022-170A",
        "meta_epoch": "2025-12-21T12:45:20.292768",
        "meta_mean_motion": 1.00271965,
        "meta_eccentricity": 0.00021682,
        "meta_inclination": 0.0149,
        "meta_ra_of_asc_node": 69.1799,
        "meta_arg_of_pericenter": 203.9912,
        "meta_mean_anomaly": 275.4209,
        "meta_ephemeris_type": 0,
        "meta_classification_type": "U",
        "meta_norad_cat_id": 54741,
        "meta_element_set_no": 999,
        "meta_rev_at_epoch": 1111,
        "meta_bstar": 0,
        "meta_mean_motion_dot": -1.4e-06,
        "meta_mean_motion_ddot": 0,
        "tle_line1": "1 54741U 22170A   25355.53148487 -.00000140  00000+0  00000+0 0  9997",
        "tle_line2": "2 54741   0.0149  69.1799 0002168 203.9912 275.4209  1.00271965 11115"
      },
      "geometry": {
        "type": "Point",
        "coordinates": [
          -52.12853518502222,
          -0.026230644771742702
        ]
      }
    },
    {
      "type": "Feature",
      "properties": {
        "norad_id": 54742,
        "name": "GALAXY 36 (G-36)",
        "group": "intelsat",
        "lat": -0.03608764733421218,
        "lon": -48.06083596644704,
        "alt_km": 35785.41791264968,
        "timestamp": "2025-12-21T20:41:07.653311+00:00",
        "meta_object_name": "GALAXY 36 (G-36)",
        "meta_object_id": "2022-170B",
        "meta_epoch": "2025-12-21T12:55:50.229120",
        "meta_mean_motion": 1.00269039,
        "meta_eccentricity": 4.273e-05,
        "meta_inclination": 0.0153,
        "meta_ra_of_asc_node": 33.0658,
        "meta_arg_of_pericenter": 314.471,
        "meta_mean_anomaly": 207.7753,
        "meta_ephemeris_type": 0,
        "meta_classification_type": "U",
        "meta_norad_cat_id": 54742,
        "meta_element_set_no": 999,
        "meta_rev_at_epoch": 1099,
        "meta_bstar": 0,
        "meta_mean_motion_dot": 0,
        "meta_mean_motion_ddot": 0,
        "tle_line1": "1 54742U 22170B   25355.53877580  .00000000  00000+0  00000+0 0  9995",
        "tle_line2": "2 54742   0.0153  33.0658 0000427 314.4710 207.7753  1.00269039 10991"
      },
      "geometry": {
        "type": "Point",
        "coordinates": [
          -48.06083596644704,
          -0.03608764733421218
        ]
      }
    },
    {
      "type": "Feature",
      "properties": {
        "norad_id": 57493,
        "name": "GALAXY 37 (G-37)",
        "group": "intelsat",
        "lat": -0.037705202993748535,
        "lon": -86.05822605900588,
        "alt_km": 35778.017762837604,
        "timestamp": "2025-12-21T20:41:07.653321+00:00",
        "meta_object_name": "GALAXY 37 (G-37)",
        "meta_object_id": "2023-112A",
        "meta_epoch": "2025-12-21T13:30:00.825120",
        "meta_mean_motion": 1.00271107,
        "meta_eccentricity": 0.00019449,
        "meta_inclination": 0.0117,
        "meta_ra_of_asc_node": 15.358,
        "meta_arg_of_pericenter": 258.8831,
        "meta_mean_anomaly": 251.6359,
        "meta_ephemeris_type": 0,
        "meta_classification_type": "U",
        "meta_norad_cat_id": 57493,
        "meta_element_set_no": 999,
        "meta_rev_at_epoch": 876,
        "meta_bstar": 0,
        "meta_mean_motion_dot": 7.1e-07,
        "meta_mean_motion_ddot": 0,
        "tle_line1": "1 57493U 23112A   25355.56250955  .00000071  00000+0  00000+0 0  9990",
        "tle_line2": "2 57493   0.0117  15.3580 0001944 258.8831 251.6359  1.00271107  8765"
      },
      "geometry": {
        "type": "Point",
        "coordinates": [
          -86.05822605900588,
          -0.037705202993748535
        ]
      }
    }
  ]
}